IRNSS-1B                
1 39635U 14017A   25332.83757147  .00000113  00000+0  00000+0 0  9999
2 39635  28.8490 243.8302 0017691 183.8746 356.8041  1.00274122 42789
LUCH-5V                 
1 39727U 14023A   25333.89801612 -.00000248  00000+0  00000+0 0  9992
2 39727   4.6343  71.6485 0004257 196.4048 219.0359  1.00273423 42367
IRNSS-1C                
1 40269U 14061A   25333.87983645 -.00000138  00000+0  00000+0 0  9990
2 40269   6.0082  92.8774 0017883   3.0306  12.8443  1.00269783 40692
GSAT-15                 
1 41028U 15065A   25334.09598612 -.00000236  00000+0  00000+0 0  9999
2 41028   0.0116 353.0040 0003091 238.3729 325.9084  1.00270808 36801
IRNSS-1E                
1 41241U 16003A   25333.82613544 -.00000289  00000+0  00000+0 0  9999
2 41241  32.7974  62.6412 0021932 186.3345 229.0425  1.00279417 36086
IRNSS-1F                
1 41384U 16015A   25334.07822514  .00000181  00000+0  00000+0 0  9997
2 41384   4.8486 101.6149 0022356 179.1753 209.0402  1.00266092 35679
IRNSS-1G                
1 41469U 16027A   25333.93948693 -.00000311  00000+0  00000+0 0  9991
2 41469   4.7051 102.4185 0001460  18.0894  56.3153  1.00267865 35180
EUTELSAT 117 WEST B     
1 41589U 16038B   25333.91147167  .00000010  00000+0  00000+0 0  9996
2 41589   0.0091 141.4354 0000191  81.7164  57.0375  1.00269428 34667
