{
  "type": "FeatureCollection",
  "features": [
    {
      "type": "Feature",
      "properties": {
        "OBJECT_NAME": "IRNSS-1B",
        "OBJECT_ID": "2014-017A",
        "EPOCH": "2025-11-28T20:06:06.175008",
        "MEAN_MOTION": 1.00274122,
        "ECCENTRICITY": 0.00176916,
        "INCLINATION": 28.849,
        "RA_OF_ASC_NODE": 243.8302,
        "ARG_OF_PERICENTER": 183.8746,
        "MEAN_ANOMALY": 356.8041,
        "EPHEMERIS_TYPE": 0,
        "CLASSIFICATION_TYPE": "U",
        "NORAD_CAT_ID": 39635,
        "ELEMENT_SET_NO": 999,
        "REV_AT_EPOCH": 4278,
        "BSTAR": 0,
        "MEAN_MOTION_DOT": 1.13e-06,
        "MEAN_MOTION_DDOT": 0,
        "norad_id": 39635,
        "name": "IRNSS-1B",
        "group": "gnss",
        "longitude_deg": NaN,
        "latitude_deg": NaN,
        "alt_km": NaN,
        "orbit_class": "HEO",
        "timestamp": "2025-11-30T09:33:02.504536+00:00"
      },
      "geometry": {
        "type": "Point",
        "coordinates": [
          NaN,
          NaN
        ]
      }
    },
    {
      "type": "Feature",
      "properties": {
        "OBJECT_NAME": "LUCH 5V (SDCM/PRN 141)",
        "OBJECT_ID": "2014-023A",
        "EPOCH": "2025-11-29T21:33:08.592768",
        "MEAN_MOTION": 1.00273423,
        "ECCENTRICITY": 0.0004257,
        "INCLINATION": 4.6343,
        "RA_OF_ASC_NODE": 71.6485,
        "ARG_OF_PERICENTER": 196.4048,
        "MEAN_ANOMALY": 219.0359,
        "EPHEMERIS_TYPE": 0,
        "CLASSIFICATION_TYPE": "U",
        "NORAD_CAT_ID": 39727,
        "ELEMENT_SET_NO": 999,
        "REV_AT_EPOCH": 4236,
        "BSTAR": 0,
        "MEAN_MOTION_DOT": -2.48e-06,
        "MEAN_MOTION_DDOT": 0,
        "norad_id": 39727,
        "name": "LUCH 5V (SDCM/PRN 141)",
        "group": "gnss",
        "longitude_deg": NaN,
        "latitude_deg": NaN,
        "alt_km": NaN,
        "orbit_class": "HEO",
        "timestamp": "2025-11-30T09:33:02.504544+00:00"
      },
      "geometry": {
        "type": "Point",
        "coordinates": [
          NaN,
          NaN
        ]
      }
    },
    {
      "type": "Feature",
      "properties": {
        "OBJECT_NAME": "IRNSS-1C",
        "OBJECT_ID": "2014-061A",
        "EPOCH": "2025-11-29T21:06:57.869280",
        "MEAN_MOTION": 1.00269783,
        "ECCENTRICITY": 0.0017883,
        "INCLINATION": 6.0082,
        "RA_OF_ASC_NODE": 92.8774,
        "ARG_OF_PERICENTER": 3.0306,
        "MEAN_ANOMALY": 12.8443,
        "EPHEMERIS_TYPE": 0,
        "CLASSIFICATION_TYPE": "U",
        "NORAD_CAT_ID": 40269,
        "ELEMENT_SET_NO": 999,
        "REV_AT_EPOCH": 4069,
        "BSTAR": 0,
        "MEAN_MOTION_DOT": -1.38e-06,
        "MEAN_MOTION_DDOT": 0,
        "norad_id": 40269,
        "name": "IRNSS-1C",
        "group": "gnss",
        "longitude_deg": NaN,
        "latitude_deg": NaN,
        "alt_km": NaN,
        "orbit_class": "HEO",
        "timestamp": "2025-11-30T09:33:02.505031+00:00"
      },
      "geometry": {
        "type": "Point",
        "coordinates": [
          NaN,
          NaN
        ]
      }
    },
    {
      "type": "Feature",
      "properties": {
        "OBJECT_NAME": "GSAT-15 (GAGAN/PRN 139)",
        "OBJECT_ID": "2015-065A",
        "EPOCH": "2025-11-30T02:18:13.200768",
        "MEAN_MOTION": 1.00270808,
        "ECCENTRICITY": 0.0003091,
        "INCLINATION": 0.0116,
        "RA_OF_ASC_NODE": 353.004,
        "ARG_OF_PERICENTER": 238.3729,
        "MEAN_ANOMALY": 325.9084,
        "EPHEMERIS_TYPE": 0,
        "CLASSIFICATION_TYPE": "U",
        "NORAD_CAT_ID": 41028,
        "ELEMENT_SET_NO": 999,
        "REV_AT_EPOCH": 3680,
        "BSTAR": 0,
        "MEAN_MOTION_DOT": -2.36e-06,
        "MEAN_MOTION_DDOT": 0,
        "norad_id": 41028,
        "name": "GSAT-15 (GAGAN/PRN 139)",
        "group": "gnss",
        "longitude_deg": NaN,
        "latitude_deg": NaN,
        "alt_km": NaN,
        "orbit_class": "HEO",
        "timestamp": "2025-11-30T09:33:02.505731+00:00"
      },
      "geometry": {
        "type": "Point",
        "coordinates": [
          NaN,
          NaN
        ]
      }
    },
    {
      "type": "Feature",
      "properties": {
        "OBJECT_NAME": "IRNSS-1E",
        "OBJECT_ID": "2016-003A",
        "EPOCH": "2025-11-29T19:49:38.102016",
        "MEAN_MOTION": 1.00279417,
        "ECCENTRICITY": 0.0021932,
        "INCLINATION": 32.7974,
        "RA_OF_ASC_NODE": 62.6412,
        "ARG_OF_PERICENTER": 186.3345,
        "MEAN_ANOMALY": 229.0425,
        "EPHEMERIS_TYPE": 0,
        "CLASSIFICATION_TYPE": "U",
        "NORAD_CAT_ID": 41241,
        "ELEMENT_SET_NO": 999,
        "REV_AT_EPOCH": 3608,
        "BSTAR": 0,
        "MEAN_MOTION_DOT": -2.89e-06,
        "MEAN_MOTION_DDOT": 0,
        "norad_id": 41241,
        "name": "IRNSS-1E",
        "group": "gnss",
        "longitude_deg": NaN,
        "latitude_deg": NaN,
        "alt_km": NaN,
        "orbit_class": "HEO",
        "timestamp": "2025-11-30T09:33:02.505901+00:00"
      },
      "geometry": {
        "type": "Point",
        "coordinates": [
          NaN,
          NaN
        ]
      }
    },
    {
      "type": "Feature",
      "properties": {
        "OBJECT_NAME": "IRNSS-1F",
        "OBJECT_ID": "2016-015A",
        "EPOCH": "2025-11-30T01:52:38.652096",
        "MEAN_MOTION": 1.00266092,
        "ECCENTRICITY": 0.0022356,
        "INCLINATION": 4.8486,
        "RA_OF_ASC_NODE": 101.6149,
        "ARG_OF_PERICENTER": 179.1753,
        "MEAN_ANOMALY": 209.0402,
        "EPHEMERIS_TYPE": 0,
        "CLASSIFICATION_TYPE": "U",
        "NORAD_CAT_ID": 41384,
        "ELEMENT_SET_NO": 999,
        "REV_AT_EPOCH": 3567,
        "BSTAR": 0,
        "MEAN_MOTION_DOT": 1.81e-06,
        "MEAN_MOTION_DDOT": 0,
        "norad_id": 41384,
        "name": "IRNSS-1F",
        "group": "gnss",
        "longitude_deg": NaN,
        "latitude_deg": NaN,
        "alt_km": NaN,
        "orbit_class": "HEO",
        "timestamp": "2025-11-30T09:33:02.505955+00:00"
      },
      "geometry": {
        "type": "Point",
        "coordinates": [
          NaN,
          NaN
        ]
      }
    },
    {
      "type": "Feature",
      "properties": {
        "OBJECT_NAME": "IRNSS-1G",
        "OBJECT_ID": "2016-027A",
        "EPOCH": "2025-11-29T22:32:51.670752",
        "MEAN_MOTION": 1.00267865,
        "ECCENTRICITY": 0.000146,
        "INCLINATION": 4.7051,
        "RA_OF_ASC_NODE": 102.4185,
        "ARG_OF_PERICENTER": 18.0894,
        "MEAN_ANOMALY": 56.3153,
        "EPHEMERIS_TYPE": 0,
        "CLASSIFICATION_TYPE": "U",
        "NORAD_CAT_ID": 41469,
        "ELEMENT_SET_NO": 999,
        "REV_AT_EPOCH": 3518,
        "BSTAR": 0,
        "MEAN_MOTION_DOT": -3.11e-06,
        "MEAN_MOTION_DDOT": 0,
        "norad_id": 41469,
        "name": "IRNSS-1G",
        "group": "gnss",
        "longitude_deg": NaN,
        "latitude_deg": NaN,
        "alt_km": NaN,
        "orbit_class": "HEO",
        "timestamp": "2025-11-30T09:33:02.505975+00:00"
      },
      "geometry": {
        "type": "Point",
        "coordinates": [
          NaN,
          NaN
        ]
      }
    },
    {
      "type": "Feature",
      "properties": {
        "OBJECT_NAME": "EUTELSAT 117 WEST B (WAAS/PRN 131)",
        "OBJECT_ID": "2016-038B",
        "EPOCH": "2025-11-29T21:52:31.152288",
        "MEAN_MOTION": 1.00269428,
        "ECCENTRICITY": 1.91e-05,
        "INCLINATION": 0.0091,
        "RA_OF_ASC_NODE": 141.4354,
        "ARG_OF_PERICENTER": 81.7164,
        "MEAN_ANOMALY": 57.0375,
        "EPHEMERIS_TYPE": 0,
        "CLASSIFICATION_TYPE": "U",
        "NORAD_CAT_ID": 41589,
        "ELEMENT_SET_NO": 999,
        "REV_AT_EPOCH": 3466,
        "BSTAR": 0,
        "MEAN_MOTION_DOT": 1e-07,
        "MEAN_MOTION_DDOT": 0,
        "norad_id": 41589,
        "name": "EUTELSAT 117 WEST B (WAAS/PRN 131)",
        "group": "gnss",
        "longitude_deg": NaN,
        "latitude_deg": NaN,
        "alt_km": NaN,
        "orbit_class": "HEO",
        "timestamp": "2025-11-30T09:33:02.506052+00:00"
      },
      "geometry": {
        "type": "Point",
        "coordinates": [
          NaN,
          NaN
        ]
      }
    }
  ]
}